EUTELSAT 174A           
1 28924U 05052A   26171.35522177  .00000003  00000+0  00000+0 0  9997
2 28924   4.2287  76.4905 0006308  11.1427 122.7677  1.00272302 52369
EUTELSAT 33F            
1 29270U 06032A   26171.32695471  .00000151  00000+0  00000+0 0  9990
2 29270   1.6709  82.2134 0003855   4.8576 332.2502  1.00272297 47330
EUTELSAT HOTBIRD 13C    
1 33459U 08065A   26171.38201711 -.00000288  00000+0  00000+0 0  9990
2 33459   2.9595  79.1570 0003462   9.9025 266.7513  1.00269969 47378
EUTELSAT 36B            
1 36101U 09065A   26171.40203720  .00000108  00000+0  00000+0 0  9993
2 36101   0.5002  81.1638 0005548   5.9114  16.7617  1.00269534 60744
EUTELSAT KA-SAT 9A      
1 37258U 10069A   26171.32244802  .00000057  00000+0  00000+0 0  9993
2 37258   0.0610  12.2628 0003782 114.8672 266.4917  1.00269176 44032
EUTELSAT 7 WEST A       
1 37816U 11051A   26171.39051046 -.00000065  00000+0  00000+0 0  9998
2 37816   0.0679  22.5916 0004255  76.3569 302.9137  1.00271971 53906
EUTELSAT 16A            
1 37836U 11057A   26171.32383470  .00000099  00000+0  00000+0 0  9994
2 37836   0.0401 347.1884 0005674 102.0888 311.8462  1.00269662  7361
EUTELSAT 21B            
1 38992U 12062B   26171.32496138  .00000125  00000+0  00000+0 0  9991
2 38992   0.0650 351.1649 0003048  87.9936 327.9799  1.00269086 49854
EUTELSAT 70B            
1 39020U 12069A   26171.40597869 -.00000048  00000+0  00000+0 0  9998
2 39020   0.0680  22.0297 0003863  59.0398  44.1885  1.00271913 49542
EUTELSAT 117 WEST A     
1 39122U 13012A   26171.36572507 -.00000017  00000+0  00000+0 0  9993
2 39122   0.0223  39.9608 0002809  49.3889 194.0807  1.00272134 48462
EUTELSAT 7B             
1 39163U 13022A   26171.39337050  .00000043  00000+0  00000+0 0  9992
2 39163   0.0639 358.4630 0004439  38.2500  20.4962  1.00270344 47970
EXPRESS-AT1             
1 39612U 14010A   26172.47385001  .00000018  00000+0  00000+0 0  9990
2 39612   0.2700  85.5903 0003873  44.0452  13.4417  1.00304441 44861
EXPRESS-AT2             
1 39613U 14010B   26171.26029022  .00000073  00000+0  00000+0 0  9996
2 39613   0.0175 318.6576 0000823 346.7956 112.7065  1.00274646 44523
EUTELSAT 3B             
1 39773U 14030A   26171.39259049  .00000015  00000+0  00000+0 0  9999
2 39773   0.0693  24.2659 0004071  62.9003 325.8468  1.00271871 44099
EUTELSAT 115 WEST B     
1 40425U 15010B   26170.94145181 -.00000031  00000+0  00000+0 0  9994
2 40425   0.0097 152.8810 0000460  27.2731 312.0421  1.00276894 41421
EUTELSAT 8 WEST B       
1 40875U 15039B   26171.39042381 -.00000070  00000+0  00000+0 0  9995
2 40875   0.0624 352.8456 0003869  93.5427 314.7707  1.00271553 39686
EUTELSAT 9B             
1 41310U 16005A   26171.32244802  .00000057  00000+0  00000+0 0  9993
2 41310   0.0887  76.7287 0001691 335.6230 341.2375  1.00272797 38146
EUTELSAT 65 WEST A      
1 41382U 16014A   26171.37907042 -.00000281  00000+0  00000+0 0  9999
2 41382   0.0503 338.6021 0002451 106.2797 254.9608  1.00273449 37559
EUTELSAT 117 WEST B     
1 41589U 16038B   26171.36572507 -.00000016  00000+0  00000+0 0  9993
2 41589   0.0119 154.9940 0000496 333.4232 154.8419  1.00272242 36697
EUTELSAT 172B           
1 42741U 17029B   26171.35478845 -.00000010  00000+0  00000+0 0  9998
2 42741   0.0377 155.9076 0000037 181.7147 230.6812  1.00270918 33779
EUTELSAT 7C             
1 44334U 19034B   26171.03691044  .00000043  00000+0  00000+0 0  9994
2 44334   0.0727 176.6467 0003148 255.4742 216.4246  1.00270984  6864
EUTELSAT 5 WEST B       
1 44624U 19067A   26171.39103049 -.00000047  00000+0  00000+0 0  9999
2 44624   0.0621 352.3440 0003110  96.7408 315.3001  1.00270225 24469
EUTELSAT KONNECT        
1 45027U 20005B   26171.39337050  .00000044  00000+0  00000+0 0  9998
2 45027   0.0730  95.2851 0001378 136.3918 185.7438  1.00268395 24365
EUTELSAT QUANTUM        
1 49056U 21069B   26169.76238150  .00000120  00000+0  00000+0 0  9999
2 49056   0.0145  22.6393 0002111  63.8054 142.7031  1.00272154 17943
EUTELSAT KONNECT VHTS   
1 53765U 22110A   26171.03604377  .00000012  00000+0  00000+0 0  9990
2 53765   0.0641  99.9422 0002365 345.5386 198.4343  1.00272019  6868
EUTELSAT HOTBIRD 13F    
1 54048U 22134A   26171.18068367  .00000082  00000+0  00000+0 0  9997
2 54048   0.0471 295.1519 0001947  64.5697 346.7332  1.00273367 13400
EUTELSAT HOTBIRD 13G    
1 54225U 22146A   26171.10938343  .00000082  00000+0  00000+0 0  9999
2 54225   0.0472 222.5154 0002093 317.6469 140.5390  1.00272784  7497
EUTELSAT 10B            
1 54259U 22157A   26171.32244802  .00000063  00000+0  00000+0 0  9991
2 54259   0.0633  97.3477 0001310   6.5284 290.7143  1.00266775 13055
EUTELSAT 36D            
1 59346U 24059A   26171.25656352  .00000000  00000+0  00000+0 0  9996
2 59346   0.0182  14.3572 0000082  90.7827 291.5697  1.00267349  8172
